{
  "type": "FeatureCollection",
  "features": [
    {
      "type": "Feature",
      "properties": {
        "norad_id": 67152,
        "name": "KUIPER-00247",
        "group": "last-30-days",
        "lat": 2.0639047682044573,
        "lon": 63.57529256930468,
        "alt_km": 471.2224537224183,
        "timestamp": "2025-12-25T20:42:37.412236+00:00",
        "meta_object_name": "KUIPER-00247",
        "meta_object_id": "2025-301V",
        "meta_epoch": "2025-12-25T06:00:04.000320",
        "meta_mean_motion": 15.33944667,
        "meta_eccentricity": 0.00113819,
        "meta_inclination": 51.8625,
        "meta_ra_of_asc_node": 64.9029,
        "meta_arg_of_pericenter": 150.7305,
        "meta_mean_anomaly": 65.3858,
        "meta_ephemeris_type": 0,
        "meta_classification_type": "U",
        "meta_norad_cat_id": 67152,
        "meta_element_set_no": 999,
        "meta_rev_at_epoch": 220,
        "meta_bstar": 0.00059762693,
        "meta_mean_motion_dot": 0.00019631,
        "meta_mean_motion_ddot": 0,
        "tle_line1": "1 67152U 25301V   25359.25004630  .00019631  00000+0  59763-3 0  9998",
        "tle_line2": "2 67152  51.8625  64.9029 0011381 150.7305  65.3858 15.33944667  2202"
      },
      "geometry": {
        "type": "Point",
        "coordinates": [
          63.57529256930468,
          2.0639047682044573
        ]
      }
    },
    {
      "type": "Feature",
      "properties": {
        "norad_id": 67153,
        "name": "KUIPER-00248",
        "group": "last-30-days",
        "lat": 19.90298719461994,
        "lon": 78.43019532523999,
        "alt_km": 462.3186048317366,
        "timestamp": "2025-12-25T20:42:37.412246+00:00",
        "meta_object_name": "KUIPER-00248",
        "meta_object_id": "2025-301W",
        "meta_epoch": "2025-12-25T06:00:04.000320",
        "meta_mean_motion": 15.34625406,
        "meta_eccentricity": 0.00088509,
        "meta_inclination": 51.8672,
        "meta_ra_of_asc_node": 64.8588,
        "meta_arg_of_pericenter": 138.2706,
        "meta_mean_anomaly": 99.3807,
        "meta_ephemeris_type": 0,
        "meta_classification_type": "U",
        "meta_norad_cat_id": 67153,
        "meta_element_set_no": 999,
        "meta_rev_at_epoch": 245,
        "meta_bstar": 0.00066962912,
        "meta_mean_motion_dot": 0.00022521,
        "meta_mean_motion_ddot": 0,
        "tle_line1": "1 67153U 25301W   25359.25004630  .00022521  00000+0  66963-3 0  9991",
        "tle_line2": "2 67153  51.8672  64.8588 0008850 138.2706  99.3807 15.34625406  2453"
      },
      "geometry": {
        "type": "Point",
        "coordinates": [
          78.43019532523999,
          19.90298719461994
        ]
      }
    },
    {
      "type": "Feature",
      "properties": {
        "norad_id": 67154,
        "name": "KUIPER-00249",
        "group": "last-30-days",
        "lat": 25.343130380635564,
        "lon": 83.73630911944113,
        "alt_km": 459.8005952004005,
        "timestamp": "2025-12-25T20:42:37.412255+00:00",
        "meta_object_name": "KUIPER-00249",
        "meta_object_id": "2025-301X",
        "meta_epoch": "2025-12-25T06:00:04.000320",
        "meta_mean_motion": 15.34770737,
        "meta_eccentricity": 0.00078234,
        "meta_inclination": 51.8648,
        "meta_ra_of_asc_node": 64.845,
        "meta_arg_of_pericenter": 135.172,
        "meta_mean_anomaly": 109.4705,
        "meta_ephemeris_type": 0,
        "meta_classification_type": "U",
        "meta_norad_cat_id": 67154,
        "meta_element_set_no": 999,
        "meta_rev_at_epoch": 213,
        "meta_bstar": 0.00071576841,
        "meta_mean_motion_dot": 0.00024212,
        "meta_mean_motion_ddot": 0,
        "tle_line1": "1 67154U 25301X   25359.25004630  .00024212  00000+0  71577-3 0  9998",
        "tle_line2": "2 67154  51.8648  64.8450 0007823 135.1720 109.4705 15.34770737  2139"
      },
      "geometry": {
        "type": "Point",
        "coordinates": [
          83.73630911944113,
          25.343130380635564
        ]
      }
    },
    {
      "type": "Feature",
      "properties": {
        "norad_id": 67155,
        "name": "KUIPER-00250",
        "group": "last-30-days",
        "lat": 36.742045810049724,
        "lon": 97.7551787057419,
        "alt_km": 454.2776752478694,
        "timestamp": "2025-12-25T20:42:37.412266+00:00",
        "meta_object_name": "KUIPER-00250",
        "meta_object_id": "2025-301Y",
        "meta_epoch": "2025-12-25T06:00:04.000320",
        "meta_mean_motion": 15.35295142,
        "meta_eccentricity": 0.00063515,
        "meta_inclination": 51.871,
        "meta_ra_of_asc_node": 64.811,
        "meta_arg_of_pericenter": 126.5434,
        "meta_mean_anomaly": 133.4544,
        "meta_ephemeris_type": 0,
        "meta_classification_type": "U",
        "meta_norad_cat_id": 67155,
        "meta_element_set_no": 999,
        "meta_rev_at_epoch": 231,
        "meta_bstar": 0.0006648438,
        "meta_mean_motion_dot": 0.00022834,
        "meta_mean_motion_ddot": 0,
        "tle_line1": "1 67155U 25301Y   25359.25004630  .00022834  00000+0  66484-3 0  9998",
        "tle_line2": "2 67155  51.8710  64.8110 0006351 126.5434 133.4544 15.35295142  2315"
      },
      "geometry": {
        "type": "Point",
        "coordinates": [
          97.7551787057419,
          36.742045810049724
        ]
      }
    },
    {
      "type": "Feature",
      "properties": {
        "norad_id": 67156,
        "name": "KUIPER-00251",
        "group": "last-30-days",
        "lat": 22.22088531483472,
        "lon": 80.61929365140357,
        "alt_km": 460.93349685279827,
        "timestamp": "2025-12-25T20:42:37.412277+00:00",
        "meta_object_name": "KUIPER-00251",
        "meta_object_id": "2025-301Z",
        "meta_epoch": "2025-12-25T06:00:04.000320",
        "meta_mean_motion": 15.34717111,
        "meta_eccentricity": 0.00089076,
        "meta_inclination": 51.866,
        "meta_ra_of_asc_node": 64.8531,
        "meta_arg_of_pericenter": 133.7251,
        "meta_mean_anomaly": 106.819,
        "meta_ephemeris_type": 0,
        "meta_classification_type": "U",
        "meta_norad_cat_id": 67156,
        "meta_element_set_no": 999,
        "meta_rev_at_epoch": 247,
        "meta_bstar": 0.00067585695,
        "meta_mean_motion_dot": 0.00022803,
        "meta_mean_motion_ddot": 0,
        "tle_line1": "1 67156U 25301Z   25359.25004630  .00022803  00000+0  67586-3 0  9999",
        "tle_line2": "2 67156  51.8660  64.8531 0008907 133.7251 106.8190 15.34717111  2475"
      },
      "geometry": {
        "type": "Point",
        "coordinates": [
          80.61929365140357,
          22.22088531483472
        ]
      }
    },
    {
      "type": "Feature",
      "properties": {
        "norad_id": 67157,
        "name": "KUIPER-00252",
        "group": "last-30-days",
        "lat": 11.029424191291563,
        "lon": 70.73813033120166,
        "alt_km": 466.9634908613307,
        "timestamp": "2025-12-25T20:42:37.412287+00:00",
        "meta_object_name": "KUIPER-00252",
        "meta_object_id": "2025-301AA",
        "meta_epoch": "2025-12-25T06:00:04.000320",
        "meta_mean_motion": 15.34289045,
        "meta_eccentricity": 0.00101929,
        "meta_inclination": 51.865,
        "meta_ra_of_asc_node": 64.8812,
        "meta_arg_of_pericenter": 145.4872,
        "meta_mean_anomaly": 81.3391,
        "meta_ephemeris_type": 0,
        "meta_classification_type": "U",
        "meta_norad_cat_id": 67157,
        "meta_element_set_no": 999,
        "meta_rev_at_epoch": 216,
        "meta_bstar": 0.00061083339,
        "meta_mean_motion_dot": 0.00020291,
        "meta_mean_motion_ddot": 0,
        "tle_line1": "1 67157U 25301AA  25359.25004630  .00020291  00000+0  61083-3 0  9995",
        "tle_line2": "2 67157  51.8650  64.8812 0010192 145.4872  81.3391 15.34289045  2161"
      },
      "geometry": {
        "type": "Point",
        "coordinates": [
          70.73813033120166,
          11.029424191291563
        ]
      }
    },
    {
      "type": "Feature",
      "properties": {
        "norad_id": 67158,
        "name": "KUIPER-00261",
        "group": "last-30-days",
        "lat": 40.215130759486335,
        "lon": 103.46440046768028,
        "alt_km": 453.1332938034693,
        "timestamp": "2025-12-25T20:42:37.412297+00:00",
        "meta_object_name": "KUIPER-00261",
        "meta_object_id": "2025-301AB",
        "meta_epoch": "2025-12-25T06:00:04.000320",
        "meta_mean_motion": 15.35361016,
        "meta_eccentricity": 0.00057626,
        "meta_inclination": 51.8691,
        "meta_ra_of_asc_node": 64.8013,
        "meta_arg_of_pericenter": 124.9404,
        "meta_mean_anomaly": 140.5604,
        "meta_ephemeris_type": 0,
        "meta_classification_type": "U",
        "meta_norad_cat_id": 67158,
        "meta_element_set_no": 999,
        "meta_rev_at_epoch": 175,
        "meta_bstar": 0.00064572726,
        "meta_mean_motion_dot": 0.0002221,
        "meta_mean_motion_ddot": 0,
        "tle_line1": "1 67158U 25301AB  25359.25004630  .00022210  00000+0  64573-3 0  9996",
        "tle_line2": "2 67158  51.8691  64.8013 0005762 124.9404 140.5604 15.35361016  1759"
      },
      "geometry": {
        "type": "Point",
        "coordinates": [
          103.46440046768028,
          40.215130759486335
        ]
      }
    }
  ]
}